start=new Date('2023-06-14T00:00:00.000Z').valueOf();
sats=[{"EPHEMERIS_TYPE":"0","PERIOD":"95.438","REF_FRAME":"TEME","FILE":"3932371","MEAN_MOTION":"15.08839056","OBJECT_ID":"2022-136AC","SEMIMAJOR_AXIS":"6917.883","MEAN_MOTION_DDOT":"0.0000000000000","LAUNCH_DATE":"2022-10-20","TIME_SYSTEM":"UTC","APOAPSIS":"540.626","OBJECT_NAME":"STARLINK-5171","TLE_LINE1":"1 54077U 22136AC  23164.89206469  .00000226  00000-0  32288-4 0  9994","MEAN_ANOMALY":"270.1936","BSTAR":"0.00003228800000","EPOCH":"2023-06-13T21:24:34.389216","NORAD_CAT_ID":"54077","COUNTRY_CODE":"US","CENTER_NAME":"EARTH","RA_OF_ASC_NODE":"132.0655","REV_AT_EPOCH":"3619","RCS_SIZE":"LARGE","OBJECT_TYPE":"PAYLOAD","MEAN_MOTION_DOT":"0.00000226","GP_ID":"233875210","MEAN_ELEMENT_THEORY":"SGP4","INCLINATION":"53.2173","DECAY_DATE":null,"ELEMENT_SET_NO":"999","ARG_OF_PERICENTER":"89.9201","PERIAPSIS":"538.870","CLASSIFICATION_TYPE":"U","ECCENTRICITY":"0.00012690","TLE_LINE2":"2 54077  53.2173 132.0655 0001269  89.9201 270.1936 15.08839056 36197","SITE":"AFETR"},{"REV_AT_EPOCH":"3618","RCS_SIZE":"LARGE","OBJECT_TYPE":"PAYLOAD","GP_ID":"233875459","MEAN_MOTION_DOT":"-0.00000547","MEAN_ELEMENT_THEORY":"SGP4","INCLINATION":"53.2162","DECAY_DATE":null,"ELEMENT_SET_NO":"999","PERIAPSIS":"538.941","CLASSIFICATION_TYPE":"U","ARG_OF_PERICENTER":"90.7168","ECCENTRICITY":"0.00011740","TLE_LINE2":"2 54078  53.2162 132.6143 0001174  90.7168 269.3959 15.08837498 36183","SITE":"AFETR","CENTER_NAME":"EARTH","RA_OF_ASC_NODE":"132.6143","MEAN_MOTION_DDOT":"0.0000000000000","LAUNCH_DATE":"2022-10-20","TIME_SYSTEM":"UTC","APOAPSIS":"540.565","OBJECT_NAME":"STARLINK-5138","TLE_LINE1":"1 54078U 22136AD  23164.86731487 -.00000547  00000-0 -16270-4 0  9996","MEAN_ANOMALY":"269.3959","BSTAR":"-0.00001627000000","EPOCH":"2023-06-13T20:48:56.004768","COUNTRY_CODE":"US","NORAD_CAT_ID":"54078","EPHEMERIS_TYPE":"0","PERIOD":"95.438","REF_FRAME":"TEME","FILE":"3932371","MEAN_MOTION":"15.08837498","OBJECT_ID":"2022-136AD","SEMIMAJOR_AXIS":"6917.888"},{"RA_OF_ASC_NODE":"145.0435","CENTER_NAME":"EARTH","DECAY_DATE":null,"ELEMENT_SET_NO":"999","PERIAPSIS":"538.915","CLASSIFICATION_TYPE":"U","ARG_OF_PERICENTER":"77.9912","ECCENTRICITY":"0.00012020","SITE":"AFETR","TLE_LINE2":"2 54079  53.2156 145.0435 0001202  77.9912 282.1214 15.08839643 35961","RCS_SIZE":"LARGE","REV_AT_EPOCH":"3596","OBJECT_TYPE":"PAYLOAD","MEAN_MOTION_DOT":"-0.00000080","GP_ID":"233842999","MEAN_ELEMENT_THEORY":"SGP4","INCLINATION":"53.2156","SEMIMAJOR_AXIS":"6917.881","MEAN_MOTION":"15.08839643","OBJECT_ID":"2022-136AE","EPHEMERIS_TYPE":"0","PERIOD":"95.438","REF_FRAME":"TEME","FILE":"3932134","MEAN_ANOMALY":"282.1214","TLE_LINE1":"1 54079U 22136AE  23164.35025122 -.00000080  00000-0  13084-4 0  9994","OBJECT_NAME":"STARLINK-5175","BSTAR":"0.00001308400000","EPOCH":"2023-06-13T08:24:21.705408","NORAD_CAT_ID":"54079","COUNTRY_CODE":"US","MEAN_MOTION_DDOT":"0.0000000000000","LAUNCH_DATE":"2022-10-20","APOAPSIS":"540.578","TIME_SYSTEM":"UTC"},{"REV_AT_EPOCH":"3588","RCS_SIZE":"LARGE","OBJECT_TYPE":"PAYLOAD","MEAN_MOTION_DOT":"-0.00000065","GP_ID":"233875206","INCLINATION":"53.2162","MEAN_ELEMENT_THEORY":"SGP4","ELEMENT_SET_NO":"999","DECAY_DATE":null,"ARG_OF_PERICENTER":"88.9356","PERIAPSIS":"538.931","CLASSIFICATION_TYPE":"U","ECCENTRICITY":"0.00011990","SITE":"AFETR","TLE_LINE2":"2 54080  53.2162 150.3045 0001199  88.9356 271.1774 15.08835039 35880","CENTER_NAME":"EARTH","RA_OF_ASC_NODE":"150.3045","MEAN_MOTION_DDOT":"0.0000000000000","LAUNCH_DATE":"2022-10-20","APOAPSIS":"540.590","TIME_SYSTEM":"UTC","TLE_LINE1":"1 54080U 22136AF  23164.27802804 -.00000065  00000-0  13972-4 0  9996","OBJECT_NAME":"STARLINK-5160","MEAN_ANOMALY":"271.1774","EPOCH":"2023-06-13T06:40:21.622656","BSTAR":"0.00001397200000","NORAD_CAT_ID":"54080","COUNTRY_CODE":"US","EPHEMERIS_TYPE":"0","REF_FRAME":"TEME","PERIOD":"95.438","FILE":"3932371","SEMIMAJOR_AXIS":"6917.896","MEAN_MOTION":"15.08835039","OBJECT_ID":"2022-136AF"},{"OBJECT_NAME":"STARLINK-5165","TLE_LINE1":"1 54081U 22136AG  23164.34288181 -.00000232  00000-0  35310-5 0  9998","MEAN_ANOMALY":"275.5831","COUNTRY_CODE":"US","NORAD_CAT_ID":"54081","BSTAR":"0.00000353100000","EPOCH":"2023-06-13T08:13:44.988384","LAUNCH_DATE":"2022-10-20","MEAN_MOTION_DDOT":"0.0000000000000","TIME_SYSTEM":"UTC","APOAPSIS":"540.604","MEAN_MOTION":"15.08839577","OBJECT_ID":"2022-136AG","SEMIMAJOR_AXIS":"6917.882","EPHEMERIS_TYPE":"0","FILE":"3932134","REF_FRAME":"TEME","PERIOD":"95.438","CLASSIFICATION_TYPE":"U","PERIAPSIS":"538.889","ARG_OF_PERICENTER":"84.5302","ELEMENT_SET_NO":"999","DECAY_DATE":null,"TLE_LINE2":"2 54081  53.2162 144.9989 0001240  84.5302 275.5831 15.08839577 35969","SITE":"AFETR","ECCENTRICITY":"0.00012400","OBJECT_TYPE":"PAYLOAD","RCS_SIZE":"LARGE","REV_AT_EPOCH":"3596","INCLINATION":"53.2162","MEAN_ELEMENT_THEORY":"SGP4","MEAN_MOTION_DOT":"-0.00000232","GP_ID":"233843502","RA_OF_ASC_NODE":"144.9989","CENTER_NAME":"EARTH"},{"MEAN_MOTION_DDOT":"0.0000000000000","LAUNCH_DATE":"2022-10-20","TIME_SYSTEM":"UTC","APOAPSIS":"540.599","TLE_LINE1":"1 54082U 22136AH  23164.34656751 -.00000139  00000-0  93825-5 0  9992","OBJECT_NAME":"STARLINK-5210","MEAN_ANOMALY":"271.6903","EPOCH":"2023-06-13T08:19:03.432864","BSTAR":"0.00000938250000","COUNTRY_CODE":"US","NORAD_CAT_ID":"54082","EPHEMERIS_TYPE":"0","PERIOD":"95.438","REF_FRAME":"TEME","FILE":"3932134","OBJECT_ID":"2022-136AH","MEAN_MOTION":"15.08837482","SEMIMAJOR_AXIS":"6917.888","REV_AT_EPOCH":"3596","RCS_SIZE":"LARGE","OBJECT_TYPE":"PAYLOAD","MEAN_MOTION_DOT":"-0.00000139","GP_ID":"233842250","INCLINATION":"53.2160","MEAN_ELEMENT_THEORY":"SGP4","DECAY_DATE":null,"ELEMENT_SET_NO":"999","CLASSIFICATION_TYPE":"U","PERIAPSIS":"538.907","ARG_OF_PERICENTER":"88.4229","ECCENTRICITY":"0.00012230","TLE_LINE2":"2 54082  53.2160 145.0213 0001223  88.4229 271.6903 15.08837482 35962","SITE":"AFETR","CENTER_NAME":"EARTH","RA_OF_ASC_NODE":"145.0213"},{"MEAN_ELEMENT_THEORY":"SGP4","INCLINATION":"53.2156","MEAN_MOTION_DOT":"-0.00000109","GP_ID":"233842500","OBJECT_TYPE":"PAYLOAD","REV_AT_EPOCH":"3596","RCS_SIZE":"LARGE","TLE_LINE2":"2 54083  53.2156 144.9512 0001034  82.5351 277.5759 15.08839750 35963","SITE":"AFETR","ECCENTRICITY":"0.00010340","PERIAPSIS":"539.031","CLASSIFICATION_TYPE":"U","ARG_OF_PERICENTER":"82.5351","ELEMENT_SET_NO":"999","DECAY_DATE":null,"CENTER_NAME":"EARTH","RA_OF_ASC_NODE":"144.9512","TIME_SYSTEM":"UTC","APOAPSIS":"540.461","LAUNCH_DATE":"2022-10-20","MEAN_MOTION_DDOT":"0.0000000000000","NORAD_CAT_ID":"54083","COUNTRY_CODE":"US","EPOCH":"2023-06-13T08:03:08.058816","BSTAR":"0.00001125400000","TLE_LINE1":"1 54083U 22136AJ  23164.33550994 -.00000109  00000-0  11254-4 0  9996","OBJECT_NAME":"STARLINK-5178","MEAN_ANOMALY":"277.5759","FILE":"3932134","REF_FRAME":"TEME","PERIOD":"95.438","EPHEMERIS_TYPE":"0","MEAN_MOTION":"15.08839750","OBJECT_ID":"2022-136AJ","SEMIMAJOR_AXIS":"6917.881"},{"RA_OF_ASC_NODE":"144.9807","CENTER_NAME":"EARTH","ECCENTRICITY":"0.00013290","SITE":"AFETR","TLE_LINE2":"2 54084  53.2166 144.9807 0001329  84.0019 276.1125 15.08837844 35961","DECAY_DATE":null,"ELEMENT_SET_NO":"999","ARG_OF_PERICENTER":"84.0019","PERIAPSIS":"538.833","CLASSIFICATION_TYPE":"U","MEAN_MOTION_DOT":"0.00000285","GP_ID":"233843252","INCLINATION":"53.2166","MEAN_ELEMENT_THEORY":"SGP4","RCS_SIZE":"LARGE","REV_AT_EPOCH":"3596","OBJECT_TYPE":"PAYLOAD","SEMIMAJOR_AXIS":"6917.887","OBJECT_ID":"2022-136AK","MEAN_MOTION":"15.08837844","REF_FRAME":"TEME","PERIOD":"95.438","FILE":"3932134","EPHEMERIS_TYPE":"0","EPOCH":"2023-06-13T08:09:49.485312","BSTAR":"0.00003600500000","COUNTRY_CODE":"US","NORAD_CAT_ID":"54084","MEAN_ANOMALY":"276.1125","TLE_LINE1":"1 54084U 22136AK  23164.34015608  .00000285  00000-0  36005-4 0  9991","OBJECT_NAME":"STARLINK-5183","APOAPSIS":"540.671","TIME_SYSTEM":"UTC","MEAN_MOTION_DDOT":"0.0000000000000","LAUNCH_DATE":"2022-10-20"},{"MEAN_MOTION":"15.08829543","OBJECT_ID":"2022-136AL","SEMIMAJOR_AXIS":"6917.912","EPHEMERIS_TYPE":"0","FILE":"3932371","REF_FRAME":"TEME","PERIOD":"95.438","OBJECT_NAME":"STARLINK-5166","TLE_LINE1":"1 54085U 22136AL  23164.26560617  .00003580  00000-0  24294-3 0  9995","MEAN_ANOMALY":"271.3548","COUNTRY_CODE":"US","NORAD_CAT_ID":"54085","BSTAR":"0.00024294000000","EPOCH":"2023-06-13T06:22:28.373088","LAUNCH_DATE":"2022-10-20","MEAN_MOTION_DDOT":"0.0000000000000","TIME_SYSTEM":"UTC","APOAPSIS":"540.629","RA_OF_ASC_NODE":"145.2273","CENTER_NAME":"EARTH","PERIAPSIS":"538.926","CLASSIFICATION_TYPE":"U","ARG_OF_PERICENTER":"88.7585","DECAY_DATE":null,"ELEMENT_SET_NO":"999","TLE_LINE2":"2 54085  53.2155 145.2273 0001231  88.7585 271.3548 15.08829543 35954","SITE":"AFETR","ECCENTRICITY":"0.00012310","OBJECT_TYPE":"PAYLOAD","RCS_SIZE":"LARGE","REV_AT_EPOCH":"3595","INCLINATION":"53.2155","MEAN_ELEMENT_THEORY":"SGP4","GP_ID":"233875211","MEAN_MOTION_DOT":"0.00003580"},{"OBJECT_ID":"2022-136AM","MEAN_MOTION":"15.08839780","SEMIMAJOR_AXIS":"6917.881","EPHEMERIS_TYPE":"0","FILE":"3932134","PERIOD":"95.438","REF_FRAME":"TEME","TLE_LINE1":"1 54086U 22136AM  23164.20257956 -.00001218  00000-0 -58464-4 0  9994","MEAN_ANOMALY":"271.9803","OBJECT_NAME":"STARLINK-5211","COUNTRY_CODE":"US","NORAD_CAT_ID":"54086","BSTAR":"-0.00005846400000","EPOCH":"2023-06-13T04:51:42.873984","LAUNCH_DATE":"2022-10-20","MEAN_MOTION_DDOT":"0.0000000000000","TIME_SYSTEM":"UTC","APOAPSIS":"540.447","RA_OF_ASC_NODE":"130.5858","CENTER_NAME":"EARTH","ARG_OF_PERICENTER":"88.1305","PERIAPSIS":"539.045","CLASSIFICATION_TYPE":"U","ELEMENT_SET_NO":"999","DECAY_DATE":null,"TLE_LINE2":"2 54086  53.2166 130.5858 0001013  88.1305 271.9803 15.08839780 36152","SITE":"AFETR","ECCENTRICITY":"0.00010130","OBJECT_TYPE":"PAYLOAD","REV_AT_EPOCH":"3615","RCS_SIZE":"LARGE","MEAN_ELEMENT_THEORY":"SGP4","INCLINATION":"53.2166","GP_ID":"233842750","MEAN_MOTION_DOT":"-0.00001218"}];
